{
  "type": "FeatureCollection",
  "features": [
    {
      "type": "Feature",
      "properties": {
        "norad_id": 44333,
        "name": "AT&T T-16",
        "group": "intelsat",
        "lat": -0.030570901061243064,
        "lon": -28.13919767560395,
        "alt_km": 35787.13983781622,
        "timestamp": "2025-12-26T22:28:05.447225+00:00",
        "meta_object_name": "AT&T T-16",
        "meta_object_id": "2019-034A",
        "meta_epoch": "2025-12-26T09:24:01.437984",
        "meta_mean_motion": 1.00280007,
        "meta_eccentricity": 9.59e-05,
        "meta_inclination": 0.0209,
        "meta_ra_of_asc_node": 69.0211,
        "meta_arg_of_pericenter": 116.5883,
        "meta_mean_anomaly": 309.683,
        "meta_ephemeris_type": 0,
        "meta_classification_type": "U",
        "meta_norad_cat_id": 44333,
        "meta_element_set_no": 999,
        "meta_rev_at_epoch": 2390,
        "meta_bstar": 0,
        "meta_mean_motion_dot": -9.5e-07,
        "meta_mean_motion_ddot": 0,
        "tle_line1": "1 44333U 19034A   25360.39168331 -.00000095  00000+0  00000+0 0  9997",
        "tle_line2": "2 44333   0.0209  69.0211 0000959 116.5883 309.6830  1.00280007 23905"
      },
      "geometry": {
        "type": "Point",
        "coordinates": [
          -28.13919767560395,
          -0.030570901061243064
        ]
      }
    },
    {
      "type": "Feature",
      "properties": {
        "norad_id": 44476,
        "name": "INTELSAT 39 (IS-39)",
        "group": "intelsat",
        "lat": 0.027434908180708623,
        "lon": 134.63092215200103,
        "alt_km": 35782.268965752926,
        "timestamp": "2025-12-26T22:28:05.447237+00:00",
        "meta_object_name": "INTELSAT 39 (IS-39)",
        "meta_object_id": "2019-049B",
        "meta_epoch": "2025-12-26T18:08:45.001824",
        "meta_mean_motion": 1.00270895,
        "meta_eccentricity": 0.0001031,
        "meta_inclination": 0.017,
        "meta_ra_of_asc_node": 2.3607,
        "meta_arg_of_pericenter": 153.4511,
        "meta_mean_anomaly": 273.8185,
        "meta_ephemeris_type": 0,
        "meta_classification_type": "U",
        "meta_norad_cat_id": 44476,
        "meta_element_set_no": 999,
        "meta_rev_at_epoch": 2339,
        "meta_bstar": 0,
        "meta_mean_motion_dot": 5.6e-07,
        "meta_mean_motion_ddot": 0,
        "tle_line1": "1 44476U 19049B   25360.75607641  .00000056  00000+0  00000+0 0  9999",
        "tle_line2": "2 44476   0.0170   2.3607 0001031 153.4511 273.8185  1.00270895 23391"
      },
      "geometry": {
        "type": "Point",
        "coordinates": [
          134.63092215200103,
          0.027434908180708623
        ]
      }
    },
    {
      "type": "Feature",
      "properties": {
        "norad_id": 46114,
        "name": "GALAXY 30 (G-30)",
        "group": "intelsat",
        "lat": -0.010196942649945294,
        "lon": -52.29890778556894,
        "alt_km": 35777.647617427676,
        "timestamp": "2025-12-26T22:28:05.447249+00:00",
        "meta_object_name": "GALAXY 30 (G-30)",
        "meta_object_id": "2020-056C",
        "meta_epoch": "2025-12-26T13:07:40.744704",
        "meta_mean_motion": 1.0027099,
        "meta_eccentricity": 0.00023924,
        "meta_inclination": 0.0083,
        "meta_ra_of_asc_node": 313.2553,
        "meta_arg_of_pericenter": 322.9444,
        "meta_mean_anomaly": 251.0088,
        "meta_ephemeris_type": 0,
        "meta_classification_type": "U",
        "meta_norad_cat_id": 46114,
        "meta_element_set_no": 999,
        "meta_rev_at_epoch": 1956,
        "meta_bstar": 0,
        "meta_mean_motion_dot": 5.9e-07,
        "meta_mean_motion_ddot": 0,
        "tle_line1": "1 46114U 20056C   25360.54699936  .00000059  00000+0  00000+0 0  9998",
        "tle_line2": "2 46114   0.0083 313.2553 0002392 322.9444 251.0088  1.00270990 19568"
      },
      "geometry": {
        "type": "Point",
        "coordinates": [
          -52.29890778556894,
          -0.010196942649945294
        ]
      }
    },
    {
      "type": "Feature",
      "properties": {
        "norad_id": 54026,
        "name": "GALAXY 33 (G-33)",
        "group": "intelsat",
        "lat": -0.013050159586722851,
        "lon": -60.28435913252456,
        "alt_km": 35779.97828199938,
        "timestamp": "2025-12-26T22:28:05.447261+00:00",
        "meta_object_name": "GALAXY 33 (G-33)",
        "meta_object_id": "2022-128A",
        "meta_epoch": "2025-12-24T04:31:51.326400",
        "meta_mean_motion": 1.00272122,
        "meta_eccentricity": 0.0001643,
        "meta_inclination": 0.0126,
        "meta_ra_of_asc_node": 315.9231,
        "meta_arg_of_pericenter": 309.5058,
        "meta_mean_anomaly": 122.5078,
        "meta_ephemeris_type": 0,
        "meta_classification_type": "U",
        "meta_norad_cat_id": 54026,
        "meta_element_set_no": 999,
        "meta_rev_at_epoch": 1198,
        "meta_bstar": 0,
        "meta_mean_motion_dot": 1e-06,
        "meta_mean_motion_ddot": 0,
        "tle_line1": "1 54026U 22128A   25358.18878850  .00000100  00000+0  00000+0 0  9999",
        "tle_line2": "2 54026   0.0126 315.9231 0001643 309.5058 122.5078  1.00272122 11987"
      },
      "geometry": {
        "type": "Point",
        "coordinates": [
          -60.28435913252456,
          -0.013050159586722851
        ]
      }
    },
    {
      "type": "Feature",
      "properties": {
        "norad_id": 54027,
        "name": "GALAXY 34 (G-34)",
        "group": "intelsat",
        "lat": -0.03925564503404571,
        "lon": -56.25629497367498,
        "alt_km": 35780.63238615374,
        "timestamp": "2025-12-26T22:28:05.447273+00:00",
        "meta_object_name": "GALAXY 34 (G-34)",
        "meta_object_id": "2022-128B",
        "meta_epoch": "2025-12-26T14:07:54.334848",
        "meta_mean_motion": 1.00270399,
        "meta_eccentricity": 0.00016972,
        "meta_inclination": 0.023,
        "meta_ra_of_asc_node": 14.3298,
        "meta_arg_of_pericenter": 253.4299,
        "meta_mean_anomaly": 270.5928,
        "meta_ephemeris_type": 0,
        "meta_classification_type": "U",
        "meta_norad_cat_id": 54027,
        "meta_element_set_no": 999,
        "meta_rev_at_epoch": 1218,
        "meta_bstar": 0,
        "meta_mean_motion_dot": 0,
        "meta_mean_motion_ddot": 0,
        "tle_line1": "1 54027U 22128B   25360.58882332  .00000000  00000+0  00000+0 0  9996",
        "tle_line2": "2 54027   0.0230  14.3298 0001697 253.4299 270.5928  1.00270399 12185"
      },
      "geometry": {
        "type": "Point",
        "coordinates": [
          -56.25629497367498,
          -0.03925564503404571
        ]
      }
    },
    {
      "type": "Feature",
      "properties": {
        "norad_id": 54243,
        "name": "GALAXY 31 (G-31)",
        "group": "intelsat",
        "lat": -0.02366883455708878,
        "lon": -48.31455042005148,
        "alt_km": 35779.65374905966,
        "timestamp": "2025-12-26T22:28:05.447285+00:00",
        "meta_object_name": "GALAXY 31 (G-31)",
        "meta_object_id": "2022-153A",
        "meta_epoch": "2025-12-26T13:10:42.273696",
        "meta_mean_motion": 1.00270334,
        "meta_eccentricity": 0.00017947,
        "meta_inclination": 0.0091,
        "meta_ra_of_asc_node": 8.6381,
        "meta_arg_of_pericenter": 277.034,
        "meta_mean_anomaly": 246.2854,
        "meta_ephemeris_type": 0,
        "meta_classification_type": "U",
        "meta_norad_cat_id": 54243,
        "meta_element_set_no": 999,
        "meta_rev_at_epoch": 540,
        "meta_bstar": 0,
        "meta_mean_motion_dot": 0,
        "meta_mean_motion_ddot": 0,
        "tle_line1": "1 54243U 22153A   25360.54910039  .00000000  00000+0  00000+0 0  9996",
        "tle_line2": "2 54243   0.0091   8.6381 0001794 277.0340 246.2854  1.00270334  5400"
      },
      "geometry": {
        "type": "Point",
        "coordinates": [
          -48.31455042005148,
          -0.02366883455708878
        ]
      }
    },
    {
      "type": "Feature",
      "properties": {
        "norad_id": 54244,
        "name": "GALAXY 32 (G-32)",
        "group": "intelsat",
        "lat": -0.016732435745339114,
        "lon": -18.293705572538453,
        "alt_km": 35778.40973626021,
        "timestamp": "2025-12-26T22:28:05.447296+00:00",
        "meta_object_name": "GALAXY 32 (G-32)",
        "meta_object_id": "2022-153B",
        "meta_epoch": "2025-12-24T22:56:22.028928",
        "meta_mean_motion": 1.00272509,
        "meta_eccentricity": 0.0001992,
        "meta_inclination": 0.0091,
        "meta_ra_of_asc_node": 20.8495,
        "meta_arg_of_pericenter": 295.2988,
        "meta_mean_anomaly": 30.6679,
        "meta_ephemeris_type": 0,
        "meta_classification_type": "U",
        "meta_norad_cat_id": 54244,
        "meta_element_set_no": 999,
        "meta_rev_at_epoch": 1139,
        "meta_bstar": 0,
        "meta_mean_motion_dot": -1.53e-06,
        "meta_mean_motion_ddot": 0,
        "tle_line1": "1 54244U 22153B   25358.95581052 -.00000153  00000+0  00000+0 0  9998",
        "tle_line2": "2 54244   0.0091  20.8495 0001992 295.2988  30.6679  1.00272509 11394"
      },
      "geometry": {
        "type": "Point",
        "coordinates": [
          -18.293705572538453,
          -0.016732435745339114
        ]
      }
    }
  ]
}